{"type":"FeatureCollection","features":[{"type":"Feature","properties":{"name":"mission_region"},"geometry":{"type":"Polygon","coordinates":[[[-175,72],[-175,62],[-195,57],[-195,52],[-185,48],[-150,48],[-135,54],[-128,54],[-128,56],[-135,62],[-135,72],[-140,72],[-175,72]]]}},{"type":"Feature","properties":{"name":"anss_region"},"geometry":{"type":"Polygon","coordinates":[[[-161.386473,56.323157],[-156.745586,53.987842],[-151.183596,56.010384],[-148.476959,56.991912],[-146.692364,58.003183],[-145.443146,58.954967],[-143.509834,59.044197],[-141.695495,58.657534],[-140.293715,58.363977],[-137.874689,56.889754],[-134.946642,54.363896],[-134.73918,54.379937],[-130.740211,54.689136],[-130.220443,54.995403],[-129.953106,55.279988],[-130.131331,55.75717],[-129.954805,55.942655],[-130.070965,56.119369],[-131.692257,56.829772],[-133.319254,58.444914],[-135.003764,59.59475],[-135.463183,59.864713],[-136.422792,59.683093],[-136.675228,59.291722],[-137.304641,59.122387],[-139.042566,60.143797],[-138.996573,60.362266],[-140.591027,60.346252],[-141,60.342144],[-141,71.864889],[-168.048026,71.863543],[-172.925921,63.803119],[-169.386473,60.323157],[-161.386473,56.323157]]]}}]}